NOAA 15                 
1 25338U 98030A   22351.11022496  .00000149  00000+0  80262-4 0  9994
2 25338  98.6268  18.1028 0011274 122.4139 237.8133 14.26208689279303
DMSP 5D-3 F15 (USA 147) 
1 25991U 99067A   22350.90971132  .00000210  00000+0  12829-3 0  9998
2 25991  99.0648 345.7241 0010657  36.3902 343.6047 14.16611274189606
DMSP 5D-3 F16 (USA 172) 
1 28054U 03048A   22351.14172633  .00000136  00000+0  95728-4 0  9998
2 28054  99.0025 343.0244 0007630 155.1226 338.2137 14.13716156988832
NOAA 18                 
1 28654U 05018A   22351.06816817  .00000204  00000+0  13392-3 0  9995
2 28654  98.9317  61.1948 0014531 171.8646 188.2764 14.12822912905855
METEOSAT-9 (MSG-2)      
1 28912U 05049B   22350.88525302  .00000150  00000+0  00000+0 0  9999
2 28912   6.4312  65.0794 0000796 213.6097 171.1521  1.00270699 62269
EWS-G1 (GOES 13)        
1 29155U 06018A   22350.81667628  .00000061  00000+0  00000+0 0  9998
2 29155   1.0404  93.4190 0006472 152.5177 194.9618  1.00275551 30553
DMSP 5D-3 F17 (USA 191) 
1 29522U 06050A   22351.12075419  .00000155  00000+0  10386-3 0  9994
2 29522  98.7611   2.7070 0010838 100.7886 259.4507 14.14148625831729
FENGYUN 3A              
1 32958U 08026A   22351.12710734  .00000145  00000+0  89746-4 0  9998
2 32958  98.5302 306.5237 0008079 209.2425 150.8300 14.18771006754233
FENGYUN 2E              
1 33463U 08066A   22350.74999509 -.00000185  00000+0  00000+0 0  9996
2 33463   6.3104  64.2104 0001057 258.9812 119.1027  1.00272700 51275
NOAA 19                 
1 33591U 09005A   22351.09041853  .00000173  00000+0  11820-3 0  9993
2 33591  99.1270  28.8798 0014393  38.3613 321.8579 14.12652086714234
GOES 14                 
1 35491U 09033A   22350.44592568 -.00000070  00000+0  00000+0 0  9998
2 35491   0.1571 258.1022 0017857 327.4720 275.8199  1.00270976 49333
METEOR-M 1              
1 35865U 09049A   22351.15393450  .00000133  00000+0  79018-4 0  9997
2 35865  98.5549 315.9599 0003296  65.3181 294.8340 14.22388061687651
DMSP 5D-3 F18 (USA 210) 
1 35951U 09057A   22351.16669620  .00000275  00000+0  16892-3 0  9995
2 35951  98.7458 326.2562 0010183 289.3987  70.6085 14.13605397678928
GOES 15                 
1 36411U 10008A   22350.55535653  .00000073  00000+0  00000+0 0  9991
2 36411   0.1136 284.8113 0002718 288.5697 304.3259  1.00283541 46840
COMS 1                  
1 36744U 10032A   22350.35952102 -.00000321  00000+0  00000+0 0  9994
2 36744   1.5356  91.6154 0001003 190.1409  60.8308  1.00270126 38263
FENGYUN 3B              
1 37214U 10059A   22351.09174165  .00000004  00000+0  26183-4 0  9995
2 37214  99.0916   0.3115 0021915 197.9983 162.0422 14.14278483626774
SUOMI NPP               
1 37849U 11061A   22351.09851660  .00000094  00000+0  65358-4 0  9991
2 37849  98.7517 287.2474 0001279  95.1421 277.3436 14.19526358577099
FENGYUN 2F              
1 38049U 12002A   22350.68335028 -.00000334  00000+0  00000+0 0  9995
2 38049   4.2363  78.2646 0002854 269.6806  95.4130  1.00261928 40064
METEOSAT-10 (MSG-3)     
1 38552U 12035B   22350.80630366  .00000085  00000+0  00000+0 0  9999
2 38552   1.8227  50.0073 0001136 185.2384 149.9513  1.00269534 38038
METOP-B                 
1 38771U 12049A   22351.14838560  .00000117  00000+0  73565-4 0  9998
2 38771  98.7067  48.3249 0000905 133.8467 311.2664 14.21485370531682
FENGYUN 3C              
1 39260U 13052A   22351.07852080  .00000101  00000+0  72023-4 0  9993
2 39260  98.4400   9.8212 0012144 106.6056 253.6463 14.15967415477768
METEOR-M 2              
1 40069U 14037A   22351.22193822  .00000017  00000+0  27071-4 0  9994
2 40069  98.4261   0.6393 0006277 142.4340 217.7282 14.20729993437810
HIMAWARI-8              
1 40267U 14060A   22350.90416781 -.00000250  00000+0  00000+0 0  9994
2 40267   0.0281 217.9276 0001192  59.4866 274.2476  1.00275091 30041
FENGYUN 2G              
1 40367U 14090A   22350.82417247 -.00000275  00000+0  00000+0 0  9994
2 40367   2.3906  87.5977 0002175 223.2143 170.5842  1.00263421 29183
METEOSAT-11 (MSG-4)     
1 40732U 15034A   22350.80447319  .00000020  00000+0  00000+0 0  9997
2 40732   0.4734 354.6150 0000578 109.1337 271.2825  1.00272586 27203
ELEKTRO-L 2             
1 41105U 15074A   22350.87331142 -.00000091  00000+0  00000+0 0  9998
2 41105   3.4463  85.9749 0002748 150.1542 149.3065  1.00272316 25696
HIMAWARI-9              
1 41836U 16064A   22350.88198601 -.00000250  00000+0  00000+0 0  9998
2 41836   0.0509 130.9762 0001410 167.0119 245.7940  1.00270975 22373
GOES 16                 
1 41866U 16071A   22350.21562308 -.00000225  00000+0  00000+0 0  9997
2 41866   0.0665 251.5078 0000873  53.0026 142.7759  1.00271242 22284
FENGYUN 4A              
1 41882U 16077A   22350.89702029 -.00000306  00000+0  00000+0 0  9991
2 41882   0.0370 325.8505 0005393  78.2303 109.0260  1.00273996 22162
CYGFM05                 
1 41884U 16078A   22350.82440833  .00004711  00000+0  23018-3 0  9990
2 41884  34.9548 145.1185 0015231 286.1302  73.7733 15.17545605332499
CYGFM04                 
1 41885U 16078B   22350.74537918  .00004533  00000+0  21819-3 0  9992
2 41885  34.9482 133.8012 0013668 303.3047  56.6356 15.18100318332535
CYGFM02                 
1 41886U 16078C   22350.73154728  .00004981  00000+0  23925-3 0  9993
2 41886  34.9573 136.1556 0014300 297.2721  62.6535 15.18141970332614
CYGFM01                 
1 41887U 16078D   22350.84998402  .00004221  00000+0  20759-3 0  9990
2 41887  34.9514 147.6486 0015717 285.5219  74.3758 15.17342506332449
CYGFM08                 
1 41888U 16078E   22350.77685135  .00004570  00000+0  22149-3 0  9991
2 41888  34.9485 139.8766 0014878 297.4712  62.4487 15.17837997332572
CYGFM07                 
1 41890U 16078G   22350.76839274  .00004831  00000+0  23255-3 0  9997
2 41890  34.9505 133.4428 0013162 302.0521  57.8913 15.18084570332540
CYGFM03                 
1 41891U 16078H   22350.76693954  .00004749  00000+0  22866-3 0  9996
2 41891  34.9537 133.9678 0012686 299.8435  60.1016 15.18087564332531
FENGYUN 3D              
1 43010U 17072A   22351.16456902  .00000117  00000+0  77357-4 0  9992
2 43010  98.8383 295.0228 0002308 100.3439 259.8006 14.19119004263685
NOAA 20                 
1 43013U 17073A   22351.05997098  .00000090  00000+0  63458-4 0  9997
2 43013  98.7355 286.8848 0000608 107.5615 252.5627 14.19536340263133
GOES 17                 
1 43226U 18022A   22350.99229156  .00000123  00000+0  00000+0 0  9999
2 43226   0.0366 151.9069 0000433 123.9838  29.6170  1.00272016 17618
FENGYUN 2H              
1 43491U 18050A   22350.89187757 -.00000103  00000+0  00000+0 0  9992
2 43491   1.6088  93.8941 0002380  74.2065 317.5256  1.00275870 16698
METOP-C                 
1 43689U 18087A   22351.16837264  .00000115  00000+0  72818-4 0  9990
2 43689  98.7113  48.3889 0002608 211.9964 148.1055 14.21491302213264
GEO-KOMPSAT-2A          
1 43823U 18100A   22346.38288764 -.00000327  00000+0  00000+0 0  9994
2 43823   0.0556 125.5537 0000104 331.7783 249.8502  1.00270684 14758
METEOR-M2 2             
1 44387U 19038A   22351.15622340  .00000037  00000+0  35607-4 0  9997
2 44387  98.7497 310.6952 0002302  95.7839 264.3609 14.23734851179405
FENGYUN 3E              
1 49008U 21062A   22351.11385766  .00000016  00000+0  27984-4 0  9992
2 49008  98.7170 350.2456 0002043 151.8430 208.2870 14.19748985 75231
GOES 18                 
1 51850U 22021A   22351.06411545  .00000121  00000+0  00000+0 0  9997
2 51850   0.0277 182.4829 0001176  74.7527  74.6055  1.00272313  2983
NOAA 21 (JPSS-2)        
1 54234U 22150A   22350.79780489  .00000194  00000+0  10749-3 0  9999
2 54234  98.6998 286.7720 0012396 137.6681 222.5456 14.22100768  5174
METEOSAT-12             
1 54743U 22170C   22351.10734926 -.00000044  00000+0  00000+0 0  9997
2 54743   5.5348 218.6527 7132934 179.9145 121.0896  2.25111103    65
